<?xml version="1.0" encoding="UTF-8"?>
<ndm xmlns:xsi="http://www.w3.org/2001/XMLSchema-instance" xsi:noNamespaceSchemaLocation="https://sanaregistry.org/r/ndmxml_unqualified/ndmxml-2.0.0-master-2.0.xsd">
<omm id="CCSDS_OMM_VERS" version="2.0">
<header><CREATION_DATE/><ORIGINATOR/></header><body><segment><metadata><OBJECT_NAME>KUIPER-00079</OBJECT_NAME><OBJECT_ID>2025-151L</OBJECT_ID><CENTER_NAME>EARTH</CENTER_NAME><REF_FRAME>TEME</REF_FRAME><TIME_SYSTEM>UTC</TIME_SYSTEM><MEAN_ELEMENT_THEORY>SGP4</MEAN_ELEMENT_THEORY></metadata><data><meanElements><EPOCH>2025-11-25T02:00:03.000384</EPOCH><MEAN_MOTION>14.80119445</MEAN_MOTION><ECCENTRICITY>.0011651</ECCENTRICITY><INCLINATION>51.8989</INCLINATION><RA_OF_ASC_NODE>43.1558</RA_OF_ASC_NODE><ARG_OF_PERICENTER>252.9155</ARG_OF_PERICENTER><MEAN_ANOMALY>69.6274</MEAN_ANOMALY></meanElements><tleParameters><EPHEMERIS_TYPE>0</EPHEMERIS_TYPE><CLASSIFICATION_TYPE>U</CLASSIFICATION_TYPE><NORAD_CAT_ID>64826</NORAD_CAT_ID><ELEMENT_SET_NO>999</ELEMENT_SET_NO><REV_AT_EPOCH>358</REV_AT_EPOCH><BSTAR>.56622E-2</BSTAR><MEAN_MOTION_DOT>.4346E-3</MEAN_MOTION_DOT><MEAN_MOTION_DDOT>0</MEAN_MOTION_DDOT></tleParameters></data></segment></body></omm>
<omm id="CCSDS_OMM_VERS" version="2.0">
<header><CREATION_DATE/><ORIGINATOR/></header><body><segment><metadata><OBJECT_NAME>KUIPER-00080</OBJECT_NAME><OBJECT_ID>2025-151M</OBJECT_ID><CENTER_NAME>EARTH</CENTER_NAME><REF_FRAME>TEME</REF_FRAME><TIME_SYSTEM>UTC</TIME_SYSTEM><MEAN_ELEMENT_THEORY>SGP4</MEAN_ELEMENT_THEORY></metadata><data><meanElements><EPOCH>2025-11-24T13:58:20.987904</EPOCH><MEAN_MOTION>14.79913219</MEAN_MOTION><ECCENTRICITY>.00051486</ECCENTRICITY><INCLINATION>51.9002</INCLINATION><RA_OF_ASC_NODE>45.3585</RA_OF_ASC_NODE><ARG_OF_PERICENTER>267.3807</ARG_OF_PERICENTER><MEAN_ANOMALY>92.6566</MEAN_ANOMALY></meanElements><tleParameters><EPHEMERIS_TYPE>0</EPHEMERIS_TYPE><CLASSIFICATION_TYPE>U</CLASSIFICATION_TYPE><NORAD_CAT_ID>64827</NORAD_CAT_ID><ELEMENT_SET_NO>999</ELEMENT_SET_NO><REV_AT_EPOCH>1974</REV_AT_EPOCH><BSTAR>-.13845007E-2</BSTAR><MEAN_MOTION_DOT>-.10757E-3</MEAN_MOTION_DOT><MEAN_MOTION_DDOT>0</MEAN_MOTION_DDOT></tleParameters></data></segment></body></omm>
<omm id="CCSDS_OMM_VERS" version="2.0">
<header><CREATION_DATE/><ORIGINATOR/></header><body><segment><metadata><OBJECT_NAME>KUIPER-00082</OBJECT_NAME><OBJECT_ID>2025-151N</OBJECT_ID><CENTER_NAME>EARTH</CENTER_NAME><REF_FRAME>TEME</REF_FRAME><TIME_SYSTEM>UTC</TIME_SYSTEM><MEAN_ELEMENT_THEORY>SGP4</MEAN_ELEMENT_THEORY></metadata><data><meanElements><EPOCH>2025-11-24T21:35:19.313376</EPOCH><MEAN_MOTION>14.79978649</MEAN_MOTION><ECCENTRICITY>.0004691</ECCENTRICITY><INCLINATION>51.9033</INCLINATION><RA_OF_ASC_NODE>31.4657</RA_OF_ASC_NODE><ARG_OF_PERICENTER>285.9862</ARG_OF_PERICENTER><MEAN_ANOMALY>74.0583</MEAN_ANOMALY></meanElements><tleParameters><EPHEMERIS_TYPE>0</EPHEMERIS_TYPE><CLASSIFICATION_TYPE>U</CLASSIFICATION_TYPE><NORAD_CAT_ID>64828</NORAD_CAT_ID><ELEMENT_SET_NO>999</ELEMENT_SET_NO><REV_AT_EPOCH>1996</REV_AT_EPOCH><BSTAR>.57032E-3</BSTAR><MEAN_MOTION_DOT>.4134E-4</MEAN_MOTION_DOT><MEAN_MOTION_DDOT>0</MEAN_MOTION_DDOT></tleParameters></data></segment></body></omm>
<omm id="CCSDS_OMM_VERS" version="2.0">
<header><CREATION_DATE/><ORIGINATOR/></header><body><segment><metadata><OBJECT_NAME>KUIPER-00083</OBJECT_NAME><OBJECT_ID>2025-151P</OBJECT_ID><CENTER_NAME>EARTH</CENTER_NAME><REF_FRAME>TEME</REF_FRAME><TIME_SYSTEM>UTC</TIME_SYSTEM><MEAN_ELEMENT_THEORY>SGP4</MEAN_ELEMENT_THEORY></metadata><data><meanElements><EPOCH>2025-11-24T21:23:58.800192</EPOCH><MEAN_MOTION>14.79847133</MEAN_MOTION><ECCENTRICITY>.001058</ECCENTRICITY><INCLINATION>51.9003</INCLINATION><RA_OF_ASC_NODE>38.9988</RA_OF_ASC_NODE><ARG_OF_PERICENTER>256.1614</ARG_OF_PERICENTER><MEAN_ANOMALY>103.8171</MEAN_ANOMALY></meanElements><tleParameters><EPHEMERIS_TYPE>0</EPHEMERIS_TYPE><CLASSIFICATION_TYPE>U</CLASSIFICATION_TYPE><NORAD_CAT_ID>64829</NORAD_CAT_ID><ELEMENT_SET_NO>999</ELEMENT_SET_NO><REV_AT_EPOCH>2104</REV_AT_EPOCH><BSTAR>-.12649E-2</BSTAR><MEAN_MOTION_DOT>-.9842E-4</MEAN_MOTION_DOT><MEAN_MOTION_DDOT>0</MEAN_MOTION_DDOT></tleParameters></data></segment></body></omm>
<omm id="CCSDS_OMM_VERS" version="2.0">
<header><CREATION_DATE/><ORIGINATOR/></header><body><segment><metadata><OBJECT_NAME>KUIPER-00084</OBJECT_NAME><OBJECT_ID>2025-151Q</OBJECT_ID><CENTER_NAME>EARTH</CENTER_NAME><REF_FRAME>TEME</REF_FRAME><TIME_SYSTEM>UTC</TIME_SYSTEM><MEAN_ELEMENT_THEORY>SGP4</MEAN_ELEMENT_THEORY></metadata><data><meanElements><EPOCH>2025-11-24T22:45:26.620128</EPOCH><MEAN_MOTION>14.79919104</MEAN_MOTION><ECCENTRICITY>.0011625</ECCENTRICITY><INCLINATION>51.9007</INCLINATION><RA_OF_ASC_NODE>48.7339</RA_OF_ASC_NODE><ARG_OF_PERICENTER>225.5543</ARG_OF_PERICENTER><MEAN_ANOMALY>134.4469</MEAN_ANOMALY></meanElements><tleParameters><EPHEMERIS_TYPE>0</EPHEMERIS_TYPE><CLASSIFICATION_TYPE>U</CLASSIFICATION_TYPE><NORAD_CAT_ID>64830</NORAD_CAT_ID><ELEMENT_SET_NO>999</ELEMENT_SET_NO><REV_AT_EPOCH>1972</REV_AT_EPOCH><BSTAR>.7497E-3</BSTAR><MEAN_MOTION_DOT>.55E-4</MEAN_MOTION_DOT><MEAN_MOTION_DDOT>0</MEAN_MOTION_DDOT></tleParameters></data></segment></body></omm>
<omm id="CCSDS_OMM_VERS" version="2.0">
<header><CREATION_DATE/><ORIGINATOR/></header><body><segment><metadata><OBJECT_NAME>KUIPER-00085</OBJECT_NAME><OBJECT_ID>2025-151R</OBJECT_ID><CENTER_NAME>EARTH</CENTER_NAME><REF_FRAME>TEME</REF_FRAME><TIME_SYSTEM>UTC</TIME_SYSTEM><MEAN_ELEMENT_THEORY>SGP4</MEAN_ELEMENT_THEORY></metadata><data><meanElements><EPOCH>2025-11-24T20:46:44.694912</EPOCH><MEAN_MOTION>14.79941484</MEAN_MOTION><ECCENTRICITY>.000721</ECCENTRICITY><INCLINATION>51.9037</INCLINATION><RA_OF_ASC_NODE>31.6269</RA_OF_ASC_NODE><ARG_OF_PERICENTER>263.5524</ARG_OF_PERICENTER><MEAN_ANOMALY>96.4618</MEAN_ANOMALY></meanElements><tleParameters><EPHEMERIS_TYPE>0</EPHEMERIS_TYPE><CLASSIFICATION_TYPE>U</CLASSIFICATION_TYPE><NORAD_CAT_ID>64831</NORAD_CAT_ID><ELEMENT_SET_NO>999</ELEMENT_SET_NO><REV_AT_EPOCH>1995</REV_AT_EPOCH><BSTAR>-.39974E-3</BSTAR><MEAN_MOTION_DOT>-.3271E-4</MEAN_MOTION_DOT><MEAN_MOTION_DDOT>0</MEAN_MOTION_DDOT></tleParameters></data></segment></body></omm>
<omm id="CCSDS_OMM_VERS" version="2.0">
<header><CREATION_DATE/><ORIGINATOR/></header><body><segment><metadata><OBJECT_NAME>KUIPER-00086</OBJECT_NAME><OBJECT_ID>2025-151S</OBJECT_ID><CENTER_NAME>EARTH</CENTER_NAME><REF_FRAME>TEME</REF_FRAME><TIME_SYSTEM>UTC</TIME_SYSTEM><MEAN_ELEMENT_THEORY>SGP4</MEAN_ELEMENT_THEORY></metadata><data><meanElements><EPOCH>2025-11-24T22:09:01.859616</EPOCH><MEAN_MOTION>14.79999445</MEAN_MOTION><ECCENTRICITY>.0011329</ECCENTRICITY><INCLINATION>51.9033</INCLINATION><RA_OF_ASC_NODE>41.3666</RA_OF_ASC_NODE><ARG_OF_PERICENTER>247.3238</ARG_OF_PERICENTER><MEAN_ANOMALY>112.6526</MEAN_ANOMALY></meanElements><tleParameters><EPHEMERIS_TYPE>0</EPHEMERIS_TYPE><CLASSIFICATION_TYPE>U</CLASSIFICATION_TYPE><NORAD_CAT_ID>64832</NORAD_CAT_ID><ELEMENT_SET_NO>999</ELEMENT_SET_NO><REV_AT_EPOCH>1982</REV_AT_EPOCH><BSTAR>.99053E-2</BSTAR><MEAN_MOTION_DOT>.76343E-3</MEAN_MOTION_DOT><MEAN_MOTION_DDOT>0</MEAN_MOTION_DDOT></tleParameters></data></segment></body></omm>
<omm id="CCSDS_OMM_VERS" version="2.0">
<header><CREATION_DATE/><ORIGINATOR/></header><body><segment><metadata><OBJECT_NAME>KUIPER-00087</OBJECT_NAME><OBJECT_ID>2025-151T</OBJECT_ID><CENTER_NAME>EARTH</CENTER_NAME><REF_FRAME>TEME</REF_FRAME><TIME_SYSTEM>UTC</TIME_SYSTEM><MEAN_ELEMENT_THEORY>SGP4</MEAN_ELEMENT_THEORY></metadata><data><meanElements><EPOCH>2025-11-24T20:58:27.025824</EPOCH><MEAN_MOTION>14.79933137</MEAN_MOTION><ECCENTRICITY>.0000348</ECCENTRICITY><INCLINATION>51.9002</INCLINATION><RA_OF_ASC_NODE>24.0800</RA_OF_ASC_NODE><ARG_OF_PERICENTER>336.8028</ARG_OF_PERICENTER><MEAN_ANOMALY>23.2918</MEAN_ANOMALY></meanElements><tleParameters><EPHEMERIS_TYPE>0</EPHEMERIS_TYPE><CLASSIFICATION_TYPE>U</CLASSIFICATION_TYPE><NORAD_CAT_ID>64833</NORAD_CAT_ID><ELEMENT_SET_NO>999</ELEMENT_SET_NO><REV_AT_EPOCH>2005</REV_AT_EPOCH><BSTAR>.80946E-3</BSTAR><MEAN_MOTION_DOT>.5955E-4</MEAN_MOTION_DOT><MEAN_MOTION_DDOT>0</MEAN_MOTION_DDOT></tleParameters></data></segment></body></omm>

</ndm>
