KUIPER-00079            
1 64826U 25151L   25329.08336806  .00043460  00000+0  56622-2 0  9994
2 64826  51.8989  43.1558 0011651 252.9155  69.6274 14.80119445  3584
KUIPER-00080            
1 64827U 25151M   25328.58218736 -.00010757  00000+0 -13845-2 0  9995
2 64827  51.9002  45.3585 0005148 267.3807  92.6566 14.79913219 19748
KUIPER-00082            
1 64828U 25151N   25328.89952909  .00004134  00000+0  57032-3 0  9994
2 64828  51.9033  31.4657 0004691 285.9862  74.0583 14.79978649 19963
KUIPER-00083            
1 64829U 25151P   25328.89165278 -.00009842  00000+0 -12649-2 0  9997
2 64829  51.9003  38.9988 0010580 256.1614 103.8171 14.79847133 21048
KUIPER-00084            
1 64830U 25151Q   25328.94822477  .00005500  00000+0  74970-3 0  9997
2 64830  51.9007  48.7339 0011625 225.5543 134.4469 14.79919104 19725
KUIPER-00085            
1 64831U 25151R   25328.86579508 -.00003271  00000+0 -39974-3 0  9993
2 64831  51.9037  31.6269 0007210 263.5524  96.4618 14.79941484 19952
KUIPER-00086            
1 64832U 25151S   25328.92293819  .00076343  00000+0  99053-2 0  9990
2 64832  51.9033  41.3666 0011329 247.3238 112.6526 14.79999445 19821
KUIPER-00087            
1 64833U 25151T   25328.87392391  .00005955  00000+0  80946-3 0  9993
2 64833  51.9002  24.0800 0000348 336.8028  23.2918 14.79933137 20051
